FLOCK 4G-24             
1 62637U 25009AE  26068.72509072  .00010513  00000+0  38996-3 0  9991
2 62637  97.4061 151.5140 0001802 280.2808  79.8228 15.27784978 63732
STARLINK-36076          
1 66588U 25270A   26067.99996192  .00026981  00000+0  98624-3 0  9991
2 66588  42.9986  59.7942 0000593 258.8349 101.2436 15.27585628 17605
